[{"OBJECT_NAME":"STARLINK-1559","OBJECT_ID":"2020-055BC","EPOCH":"2026-03-09T05:36:23.522976","MEAN_MOTION":15.29461733,"ECCENTRICITY":0.0004229,"INCLINATION":53.0254,"RA_OF_ASC_NODE":76.0659,"ARG_OF_PERICENTER":33.971,"MEAN_ANOMALY":326.1559,"EPHEMERIS_TYPE":0,"CLASSIFICATION_TYPE":"U","NORAD_CAT_ID":46077,"ELEMENT_SET_NO":999,"REV_AT_EPOCH":30951,"BSTAR":0.0014778793,"MEAN_MOTION_DOT":0.00042685,"MEAN_MOTION_DDOT":0},{"OBJECT_NAME":"STARLINK-2634","OBJECT_ID":"2021-040T","EPOCH":"2026-03-09T21:39:54.086976","MEAN_MOTION":15.30209502,"ECCENTRICITY":0.00012058,"INCLINATION":53.16,"RA_OF_ASC_NODE":177.1427,"ARG_OF_PERICENTER":73.806,"MEAN_ANOMALY":286.3073,"EPHEMERIS_TYPE":0,"CLASSIFICATION_TYPE":"U","NORAD_CAT_ID":48445,"ELEMENT_SET_NO":999,"REV_AT_EPOCH":26671,"BSTAR":0.00026697441,"MEAN_MOTION_DOT":7.558e-5,"MEAN_MOTION_DDOT":0}]
